OBJECT_NAME,OBJECT_ID,EPOCH,MEAN_MOTION,ECCENTRICITY,INCLINATION,RA_OF_ASC_NODE,ARG_OF_PERICENTER,MEAN_ANOMALY,EPHEMERIS_TYPE,CLASSIFICATION_TYPE,NORAD_CAT_ID,ELEMENT_SET_NO,REV_AT_EPOCH,BSTAR,MEAN_MOTION_DOT,MEAN_MOTION_DDOT
FENGYUN 4B,2021-047A,2026-07-20T20:28:13.812960,1.00277287,.00068471,0.2344,80.2811,274.0428,355.9704,0,U,48808,999,1890,0,-.331E-5,0
SXM-8,2021-049A,2026-07-20T19:34:08.336928,1.00273023,.00059964,0.0146,46.1480,346.9760,113.8474,0,U,48838,999,1892,0,-.206E-5,0
2021-050D,2021-050D,2026-07-20T23:08:28.448160,15.23624296,.00068887,97.3318,277.2351,135.7786,224.4002,0,U,48843,999,28410,.77705157E-4,.1792E-4,0
NAVSTAR 81 (USA 319),2021-054A,2026-07-20T22:00:47.256768,2.00567042,.00265749,55.1564,331.1035,228.5863,135.0766,0,U,48859,999,3743,0,-.111E-5,0
YAOGAN-30 10A,2021-055A,2026-07-20T14:54:07.716096,15.02812194,.00039225,34.9965,308.4432,352.0972,7.9674,0,U,48860,999,27821,.85106534E-4,.1133E-4,0
YAOGAN-30 10B,2021-055B,2026-07-20T14:23:50.356896,15.02801825,.0004221,34.9963,308.2098,359.7997,0.2709,0,U,48861,999,27820,.86982E-4,.1158E-4,0
YAOGAN-30 10C,2021-055D,2026-07-20T13:34:29.707968,15.02810722,.0002622,34.9964,308.0775,93.1327,266.9682,0,U,48863,999,27791,.95189E-4,.1271E-4,0
TIANQI-14,2021-055E,2026-07-20T16:39:01.225152,15.13954695,.00056312,34.9979,230.7057,255.4009,104.6078,0,U,48864,999,27880,.1491605E-3,.2734E-4,0
COSMOS 2550,2021-056A,2026-07-20T22:22:27.344352,15.33864318,.00085445,67.1441,357.8280,269.4482,90.5693,0,U,48865,999,28389,.1151313E-3,.3602E-4,0
STARLINK-3005,2021-059C,2026-07-20T22:05:13.771392,15.01156300,.0005367,97.4243,325.7851,171.4020,188.7297,0,U,48881,999,27879,.15720098E-2,.20142E-3,0
TYVAK-0173,2021-059P,2026-07-20T18:08:52.917792,14.81980709,.00070839,96.0068,269.7679,275.8524,84.1886,0,U,48892,999,27321,.10503112E-3,.801E-5,0
MANDRAKE 2 ABLE,2021-059AE,2026-07-20T19:34:18.334272,15.56228811,.00042068,97.7034,34.1974,209.1820,150.9199,0,U,48907,999,28235,.21965439E-3,.15307E-3,0
MANDRAKE 2 BAKER,2021-059AF,2026-07-20T20:05:00.555072,15.61177083,.00032245,97.6996,37.3356,194.9960,165.1202,0,U,48908,999,28254,.26372047E-3,.22191E-3,0
PACE-1,2021-059AG,2026-07-20T02:07:54.093792,15.86149202,.00035401,97.6715,43.1015,168.6088,191.5263,0,U,48909,999,28300,.36067224E-3,.89516E-3,0
YAM-3,2021-059AN,2026-07-20T22:03:53.466912,15.49228742,.00043157,97.7002,31.0983,214.4988,145.5983,0,U,48915,999,28221,.15243986E-3,.8214E-4,0
FARADAY_PHOENIX,2021-059AX,2026-07-20T00:22:28.563168,15.88602495,.00058281,97.6766,42.9512,187.0195,173.0996,0,U,48924,999,28285,.67767373E-3,.187492E-2,.14786912E-4
HAWK-3B,2021-059BE,2026-07-20T03:05:42.618336,15.72164957,.00048552,97.6637,41.0194,181.2561,178.8690,0,U,48931,999,28302,.21491603E-3,.28153E-3,0
HAWK-3C,2021-059BX,2026-07-20T19:53:26.168640,15.72210741,.00052658,97.6749,47.5312,178.9244,181.2031,0,U,48948,999,28313,.23340613E-3,.30658E-3,0
DEMO8 (TENZING),2021-059CA,2026-07-20T01:08:09.430368,15.56152294,.00060872,97.7017,36.9978,211.2421,148.8471,0,U,48951,999,28241,.17780135E-3,.12335E-3,0
HAWK-3A,2021-059CG,2026-07-20T03:05:05.583840,15.72164641,.00050492,97.6701,43.9389,183.4307,176.6922,0,U,48957,999,28302,.21024664E-3,.27537E-3,0
SHERPA-FX2 & TAGSAT-2,2021-059CH,2026-07-20T02:09:33.752736,15.57408576,.00059235,97.6846,37.6152,201.9163,158.1839,0,U,48958,999,28254,.19023386E-3,.1384E-3,0
SPARTAN,2021-059CP,2026-07-20T19:57:01.081728,15.86189284,.00033433,97.6713,46.3609,163.9280,196.2097,0,U,48964,999,28325,.40115743E-3,.99888E-3,0
ONEWEB-0249,2021-060A,2026-07-20T19:05:33.886176,13.16591990,.0002171,87.9076,222.1019,94.0819,266.0560,0,U,48967,999,24403,.12162645E-3,.59E-6,0
ONEWEB-0250,2021-060B,2026-07-20T01:27:09.004896,13.25835494,.00030185,87.9079,219.8970,81.1956,278.9522,0,U,48968,999,24457,.16808896E-4,.21E-6,0
ONEWEB-0252,2021-060D,2026-07-20T03:25:06.722688,13.16595817,.00018809,87.9078,222.2239,96.5150,263.6195,0,U,48970,999,24399,.86554634E-4,.46E-6,0
ONEWEB-0253,2021-060E,2026-07-20T01:19:43.188672,13.16595723,.00021702,87.9075,222.2462,90.9399,269.1980,0,U,48971,999,24391,.60681457E-4,.36E-6,0
ONEWEB-0254,2021-060F,2026-07-20T10:40:35.571360,13.16594261,.00023315,87.9082,222.1674,97.2595,262.8801,0,U,48972,999,24396,-.10754962E-3,-.28E-6,0
ONEWEB-0255,2021-060G,2026-07-20T02:28:07.845312,13.16594098,.00021932,87.9076,222.2416,96.6960,263.4421,0,U,48973,999,24399,-.75384385E-4,-.16E-6,0
ONEWEB-0256,2021-060H,2026-07-20T19:30:40.668480,13.16595088,.00019112,87.9072,222.1029,94.2239,265.9111,0,U,48974,999,24405,.29917958E-3,.127E-5,0
ONEWEB-0257,2021-060J,2026-07-20T02:03:03.097728,13.16593904,.00020641,87.9077,222.2359,97.1146,263.0220,0,U,48975,999,24391,-.10967558E-3,-.29E-6,0
ONEWEB-0258,2021-060K,2026-07-20T11:12:28.797408,13.16603482,.0002263,87.9080,222.1725,93.3111,266.8279,0,U,48976,999,24397,-.54116162E-2,-.2056E-4,0
ONEWEB-0259,2021-060L,2026-07-20T01:56:12.688224,13.16594464,.00022633,87.9076,222.2478,93.9063,266.2327,0,U,48977,999,24395,-.20771029E-3,-.67E-6,0
ONEWEB-0260,2021-060M,2026-07-20T01:43:38.574336,13.16593543,.0001679,87.9074,222.2496,94.8413,265.2910,0,U,48978,999,24393,.14467574E-3,.68E-6,0
ONEWEB-0261,2021-060N,2026-07-20T10:07:32.439072,13.16593915,.00021122,87.9073,222.1813,101.9652,258.1716,0,U,48979,999,24403,.15214714E-3,.71E-6,0
ONEWEB-0262,2021-060P,2026-07-20T18:46:12.701280,13.16593617,.0002363,87.9079,222.0966,92.9575,267.1826,0,U,48980,999,24404,-.22640028E-3,-.74E-6,0
ONEWEB-0263,2021-060Q,2026-07-20T19:31:48.474336,13.16594111,.00022648,87.9078,222.1021,100.7251,259.4135,0,U,48981,999,24401,.13515808E-3,.65E-6,0
ONEWEB-0264,2021-060R,2026-07-20T18:35:56.350464,13.16592858,.0001997,87.9074,222.1114,97.9805,262.1553,0,U,48982,999,24401,-.19806701E-3,-.63E-6,0
ONEWEB-0266,2021-060T,2026-07-20T19:06:42.183648,13.16595374,.00020817,87.9076,222.0990,90.4345,269.7025,0,U,48984,999,24400,.74307965E-4,.41E-6,0
ONEWEB-0267,2021-060U,2026-07-20T02:57:46.123200,13.16594437,.00020751,87.9079,222.2297,98.9500,261.1866,0,U,48985,999,24392,.19297622E-3,.87E-6,0
ONEWEB-0268,2021-060V,2026-07-20T07:40:27.294240,13.16593794,.00019353,87.9077,222.1998,92.1078,268.0275,0,U,48986,999,24421,-.12855482E-3,-.36E-6,0
ONEWEB-0269,2021-060W,2026-07-20T01:44:48.555744,13.16594917,.00019214,87.9075,222.2489,88.8442,271.2909,0,U,48987,999,24395,.22270295E-3,.98E-6,0
ONEWEB-0270,2021-060X,2026-07-20T18:34:47.272800,13.16592676,.00023857,87.9078,222.1117,97.7321,262.4081,0,U,48988,999,24408,-.16450005E-3,-.5E-6,0
ONEWEB-0271,2021-060Y,2026-07-20T10:58:49.845504,13.16594406,.00021824,87.9076,222.1635,98.8069,261.3309,0,U,48989,999,24404,-.1204741E-3,-.33E-6,0
ONEWEB-0272,2021-060Z,2026-07-20T18:48:28.355328,13.16595513,.00018551,87.9071,222.1095,98.7696,261.3645,0,U,48990,999,24403,-.19436558E-3,-.61E-6,0
ONEWEB-0273,2021-060AA,2026-07-20T10:13:12.064512,13.16598442,.00020903,87.9071,222.1812,96.3466,263.7903,0,U,48991,999,24396,-.25903763E-2,-.977E-5,0
ONEWEB-0274,2021-060AB,2026-07-20T01:42:30.212064,13.16596227,.0001769,87.9071,222.2512,96.2930,263.8403,0,U,48992,999,24395,.13197855E-3,.63E-6,0
ONEWEB-0275,2021-060AC,2026-07-20T19:40:52.152384,13.16588434,.00011904,87.9079,222.0949,98.1959,261.9307,0,U,48993,999,24398,.63858385E-4,.37E-6,0
ONEWEB-0276,2021-060AD,2026-07-20T18:39:22.385952,13.16593884,.00019172,87.9077,222.1025,94.5834,265.5516,0,U,48994,999,24399,-.16560699E-3,-.5E-6,0
ONEWEB-0277,2021-060AE,2026-07-20T18:57:36.552960,13.16595261,.00021869,87.9071,222.1069,96.6443,263.4937,0,U,48995,999,24398,-.7466005E-5,.1E-6,0
ONEWEB-0278,2021-060AF,2026-07-20T18:43:55.984512,13.16594387,.0002163,87.9077,222.1013,87.6360,272.5019,0,U,48996,999,24411,-.41054026E-4,-.3E-7,0
ONEWEB-0279,2021-060AG,2026-07-20T18:55:19.992576,13.16593777,.00020461,87.9077,222.0979,100.0334,260.1028,0,U,48997,999,24404,-.73631351E-4,-.15E-6,0
ONEWEB-0280,2021-060AH,2026-07-20T10:09:47.846016,13.16594816,.00024111,87.9076,222.1744,92.4625,267.6782,0,U,48998,999,24393,.22878705E-3,.1E-5,0
ONEWEB-0281,2021-060AJ,2026-07-20T19:24:56.628000,13.16592504,.0001924,87.9080,222.0935,92.7910,267.3441,0,U,48999,999,24405,.13944478E-3,.66E-6,0
ONEWEB-0282,2021-060AK,2026-07-20T07:22:13.685376,13.16595229,.0002207,87.9078,222.2005,94.6457,265.4926,0,U,49000,999,24396,-.60781938E-4,-.1E-6,0
ONEWEB-0283,2021-060AL,2026-07-20T10:45:08.699040,13.16593651,.0002062,87.9077,222.1717,98.4019,261.7346,0,U,49001,999,24399,-.6167539E-5,.1E-6,0
ONEWEB-0284,2021-060AM,2026-07-20T19:43:12.751104,13.16594468,.00023714,87.9082,222.0917,89.2463,270.8940,0,U,49002,999,24402,.25629871E-3,.111E-5,0
JILIN-1 KUANFU-01B,2021-061A,2026-07-20T23:22:22.127808,15.09817743,.00054311,97.5190,277.5388,314.5036,45.5749,0,U,49003,999,27844,.23282732E-4,.314E-5,0
FENGYUN 3E,2021-062A,2026-07-20T22:55:39.910656,14.19906091,.00019687,98.7509,204.9880,30.3636,329.7654,0,U,49008,999,26137,-.62059554E-4,-.176E-5,0
TIANLIAN 1-05,2021-063A,2026-07-20T14:54:59.221728,1.00269993,.0001234,1.6781,80.4238,85.7551,12.7930,0,U,49011,999,1841,0,.106E-5,0
NINGXIA-1 6,2021-064A,2026-07-20T23:10:19.538688,14.08537373,.00080426,44.9998,74.4960,26.1584,333.9658,0,U,49018,999,25897,-.5715792E-4,-.231E-5,0
NINGXIA-1 7,2021-064B,2026-07-20T22:49:33.609216,14.08554044,.00068322,45.0026,74.8006,34.3689,325.7589,0,U,49019,999,25900,-.51846021E-4,-.222E-5,0
NINGXIA-1 8,2021-064C,2026-07-20T22:31:09.706656,14.08542188,.00075447,44.9945,73.5471,41.8903,318.2509,0,U,49020,999,25898,.41215E-4,-.61E-6,0
NINGXIA-1 9,2021-064D,2026-07-20T22:07:37.663680,14.08564543,.0008367,45.0025,74.5847,51.2395,308.9188,0,U,49021,999,25898,.14389882E-3,.117E-5,0
NINGXIA-1 10,2021-064E,2026-07-20T23:30:10.547136,14.08557262,.00076999,44.9995,73.7741,57.1765,302.9813,0,U,49022,999,25899,.74672234E-4,-.3E-7,0
YAOGAN-30 11A,2021-065A,2026-07-20T22:31:28.384608,15.02838797,.0003387,34.9937,67.3635,80.7143,279.3948,0,U,49026,999,27372,.91690708E-4,.1224E-4,0
